STARLINK-2720
1 18653C 21044R   21326.18158976 -.00000431  00000-0 -28857-4 0  3264
2 18653  53.0546 322.9171 0001709  51.6379 358.5134 15.06389011    18
